ONEWEB-0012             
1 44057U 19010A   25259.05615090  .00000124  00000+0  28961-3 0  9995
2 44057  87.8973 283.4344 0001998  79.7339 280.4017 13.16594670315493
ONEWEB-0010             
1 44058U 19010B   25259.08148229  .00000048  00000+0  92554-4 0  9999
2 44058  87.8979 283.4125 0001521  99.0853 261.0450 13.16595401315540
ONEWEB-0008             
1 44059U 19010C   25259.03079164 -.00000140  00000+0 -40048-3 0  9991
2 44059  87.8972 283.4200 0002093  94.0364 266.1006 13.16592886315654
ONEWEB-0007             
1 44060U 19010D   25259.15237815  .00000175  00000+0  43204-3 0  9998
2 44060  87.9029 313.9127 0001590  92.7322 267.3990 13.15549259315343
ONEWEB-0006             
1 44061U 19010E   25259.15633052  .00000165  00000+0  40395-3 0  9999
2 44061  87.9033 313.8528 0001631  97.5624 262.5691 13.15549059315395
ONEWEB-0011             
1 44062U 19010F   25258.97253219  .00000026  00000+0  35796-4 0  9998
2 44062  87.9036 313.9016 0001948 104.1885 255.9462 13.15549882315360
ONEWEB-0013             
1 45131U 20008A   25259.00540686 -.00000459  00000+0 -13704-2 0  9992
2 45131  87.8485 108.2030 0002239  58.0844 302.0501 13.09436111270183
ONEWEB-0017             
1 45132U 20008B   25259.02898956 -.00000633  00000+0 -18495-2 0  9997
2 45132  87.8740  90.9481 0001511  92.8721 267.2579 13.10371305272046
ONEWEB-0020             
1 45133U 20008C   25259.07549453  .00000416  00000+0  11550-2 0  9990
2 45133  87.8734  90.9214 0001827  91.5937 268.5399 13.10368815272449
ONEWEB-0021             
1 45134U 20008D   25259.24314152 -.00000411  00000+0 -12138-2 0  9996
2 45134  87.8733  90.9218 0001580  84.7484 275.3824 13.10369666272770
ONEWEB-0023             
1 45136U 20008F   25259.25392267 -.00000658  00000+0 -19214-2 0  9997
2 45136  87.8735  90.9022 0001951  86.3397 273.7953 13.10371632272209
ONEWEB-0024             
1 45137U 20008G   25259.07385220  .00000472  00000+0  13166-2 0  9991
2 45137  87.8751  90.8905 0001616  87.4930 272.6383 13.10370453272340
ONEWEB-0025             
1 45138U 20008H   25259.24397714 -.00000425  00000+0 -12544-2 0  9991
2 45138  87.8752  90.8668 0001895  69.1503 290.9827 13.10370969272696
ONEWEB-0026             
1 45139U 20008J   25259.25316268  .00000581  00000+0  16020-2 0  9992
2 45139  87.8776  75.6364 0001648  96.3518 263.7797 13.11417174275206
ONEWEB-0028             
1 45140U 20008K   25259.20991205 -.00000544  00000+0 -15701-2 0  9995
2 45140  87.8775  75.6651 0001926  70.4877 289.6459 13.11417296272716
ONEWEB-0032             
1 45141U 20008L   25259.25973248 -.00000776  00000+0 -22598-2 0  9997
2 45141  87.8735  90.9015 0001749  81.7282 278.4044 13.10373492272427
ONEWEB-0033             
1 45142U 20008M   25259.23484869  .00000007  00000+0 -16170-4 0  9999
2 45142  87.8732  90.9185 0001554  92.6279 267.5026 13.10369690272338
