[{"OBJECT_NAME":"ONEWEB-0012","OBJECT_ID":"2019-010A","EPOCH":"2025-09-16T01:20:51.437760","MEAN_MOTION":13.1659467,"ECCENTRICITY":0.00019989,"INCLINATION":87.8973,"RA_OF_ASC_NODE":283.4344,"ARG_OF_PERICENTER":79.7339,"MEAN_ANOMALY":280.4017,"EPHEMERIS_TYPE":0,"CLASSIFICATION_TYPE":"U","NORAD_CAT_ID":44057,"ELEMENT_SET_NO":999,"REV_AT_EPOCH":31549,"BSTAR":0.00028961212,"MEAN_MOTION_DOT":1.24e-6,"MEAN_MOTION_DDOT":0},{"OBJECT_NAME":"ONEWEB-0010","OBJECT_ID":"2019-010B","EPOCH":"2025-09-16T01:57:20.069856","MEAN_MOTION":13.16595401,"ECCENTRICITY":0.00015219,"INCLINATION":87.8979,"RA_OF_ASC_NODE":283.4125,"ARG_OF_PERICENTER":99.0853,"MEAN_ANOMALY":261.045,"EPHEMERIS_TYPE":0,"CLASSIFICATION_TYPE":"U","NORAD_CAT_ID":44058,"ELEMENT_SET_NO":999,"REV_AT_EPOCH":31554,"BSTAR":9.2553709e-5,"MEAN_MOTION_DOT":4.8e-7,"MEAN_MOTION_DDOT":0},{"OBJECT_NAME":"ONEWEB-0008","OBJECT_ID":"2019-010C","EPOCH":"2025-09-16T00:44:20.397696","MEAN_MOTION":13.16592886,"ECCENTRICITY":0.0002093,"INCLINATION":87.8972,"RA_OF_ASC_NODE":283.42,"ARG_OF_PERICENTER":94.0364,"MEAN_ANOMALY":266.1006,"EPHEMERIS_TYPE":0,"CLASSIFICATION_TYPE":"U","NORAD_CAT_ID":44059,"ELEMENT_SET_NO":999,"REV_AT_EPOCH":31565,"BSTAR":-0.00040048152,"MEAN_MOTION_DOT":-1.4e-6,"MEAN_MOTION_DDOT":0},{"OBJECT_NAME":"ONEWEB-0007","OBJECT_ID":"2019-010D","EPOCH":"2025-09-16T03:39:25.472160","MEAN_MOTION":13.15549259,"ECCENTRICITY":0.00015904,"INCLINATION":87.9029,"RA_OF_ASC_NODE":313.9127,"ARG_OF_PERICENTER":92.7322,"MEAN_ANOMALY":267.399,"EPHEMERIS_TYPE":0,"CLASSIFICATION_TYPE":"U","NORAD_CAT_ID":44060,"ELEMENT_SET_NO":999,"REV_AT_EPOCH":31534,"BSTAR":0.00043204348,"MEAN_MOTION_DOT":1.75e-6,"MEAN_MOTION_DDOT":0},{"OBJECT_NAME":"ONEWEB-0006","OBJECT_ID":"2019-010E","EPOCH":"2025-09-16T03:45:06.956928","MEAN_MOTION":13.15549059,"ECCENTRICITY":0.00016314,"INCLINATION":87.9033,"RA_OF_ASC_NODE":313.8528,"ARG_OF_PERICENTER":97.5624,"MEAN_ANOMALY":262.5691,"EPHEMERIS_TYPE":0,"CLASSIFICATION_TYPE":"U","NORAD_CAT_ID":44061,"ELEMENT_SET_NO":999,"REV_AT_EPOCH":31539,"BSTAR":0.00040395292,"MEAN_MOTION_DOT":1.65e-6,"MEAN_MOTION_DDOT":0},{"OBJECT_NAME":"ONEWEB-0011","OBJECT_ID":"2019-010F","EPOCH":"2025-09-15T23:20:26.781216","MEAN_MOTION":13.15549882,"ECCENTRICITY":0.00019486,"INCLINATION":87.9036,"RA_OF_ASC_NODE":313.9016,"ARG_OF_PERICENTER":104.1885,"MEAN_ANOMALY":255.9462,"EPHEMERIS_TYPE":0,"CLASSIFICATION_TYPE":"U","NORAD_CAT_ID":44062,"ELEMENT_SET_NO":999,"REV_AT_EPOCH":31536,"BSTAR":3.5795994e-5,"MEAN_MOTION_DOT":2.6e-7,"MEAN_MOTION_DDOT":0},{"OBJECT_NAME":"ONEWEB-0013","OBJECT_ID":"2020-008A","EPOCH":"2025-09-16T00:07:47.152704","MEAN_MOTION":13.09436111,"ECCENTRICITY":0.00022395,"INCLINATION":87.8485,"RA_OF_ASC_NODE":108.203,"ARG_OF_PERICENTER":58.0844,"MEAN_ANOMALY":302.0501,"EPHEMERIS_TYPE":0,"CLASSIFICATION_TYPE":"U","NORAD_CAT_ID":45131,"ELEMENT_SET_NO":999,"REV_AT_EPOCH":27018,"BSTAR":-0.0013704041,"MEAN_MOTION_DOT":-4.59e-6,"MEAN_MOTION_DDOT":0},{"OBJECT_NAME":"ONEWEB-0017","OBJECT_ID":"2020-008B","EPOCH":"2025-09-16T00:41:44.697984","MEAN_MOTION":13.10371305,"ECCENTRICITY":0.00015118,"INCLINATION":87.874,"RA_OF_ASC_NODE":90.9481,"ARG_OF_PERICENTER":92.8721,"MEAN_ANOMALY":267.2579,"EPHEMERIS_TYPE":0,"CLASSIFICATION_TYPE":"U","NORAD_CAT_ID":45132,"ELEMENT_SET_NO":999,"REV_AT_EPOCH":27204,"BSTAR":-0.0018494929,"MEAN_MOTION_DOT":-6.33e-6,"MEAN_MOTION_DDOT":0},{"OBJECT_NAME":"ONEWEB-0020","OBJECT_ID":"2020-008C","EPOCH":"2025-09-16T01:48:42.727392","MEAN_MOTION":13.10368815,"ECCENTRICITY":0.0001827,"INCLINATION":87.8734,"RA_OF_ASC_NODE":90.9214,"ARG_OF_PERICENTER":91.5937,"MEAN_ANOMALY":268.5399,"EPHEMERIS_TYPE":0,"CLASSIFICATION_TYPE":"U","NORAD_CAT_ID":45133,"ELEMENT_SET_NO":999,"REV_AT_EPOCH":27244,"BSTAR":0.0011550279,"MEAN_MOTION_DOT":4.16e-6,"MEAN_MOTION_DDOT":0},{"OBJECT_NAME":"ONEWEB-0021","OBJECT_ID":"2020-008D","EPOCH":"2025-09-16T05:50:07.427328","MEAN_MOTION":13.10369666,"ECCENTRICITY":0.00015809,"INCLINATION":87.8733,"RA_OF_ASC_NODE":90.9218,"ARG_OF_PERICENTER":84.7484,"MEAN_ANOMALY":275.3824,"EPHEMERIS_TYPE":0,"CLASSIFICATION_TYPE":"U","NORAD_CAT_ID":45134,"ELEMENT_SET_NO":999,"REV_AT_EPOCH":27277,"BSTAR":-0.0012138409,"MEAN_MOTION_DOT":-4.11e-6,"MEAN_MOTION_DDOT":0},{"OBJECT_NAME":"ONEWEB-0023","OBJECT_ID":"2020-008F","EPOCH":"2025-09-16T06:05:38.918688","MEAN_MOTION":13.10371632,"ECCENTRICITY":0.00019512,"INCLINATION":87.8735,"RA_OF_ASC_NODE":90.9022,"ARG_OF_PERICENTER":86.3397,"MEAN_ANOMALY":273.7953,"EPHEMERIS_TYPE":0,"CLASSIFICATION_TYPE":"U","NORAD_CAT_ID":45136,"ELEMENT_SET_NO":999,"REV_AT_EPOCH":27220,"BSTAR":-0.0019213619,"MEAN_MOTION_DOT":-6.58e-6,"MEAN_MOTION_DDOT":0},{"OBJECT_NAME":"ONEWEB-0024","OBJECT_ID":"2020-008G","EPOCH":"2025-09-16T01:46:20.830080","MEAN_MOTION":13.10370453,"ECCENTRICITY":0.00016161,"INCLINATION":87.8751,"RA_OF_ASC_NODE":90.8905,"ARG_OF_PERICENTER":87.493,"MEAN_ANOMALY":272.6383,"EPHEMERIS_TYPE":0,"CLASSIFICATION_TYPE":"U","NORAD_CAT_ID":45137,"ELEMENT_SET_NO":999,"REV_AT_EPOCH":27234,"BSTAR":0.0013166442,"MEAN_MOTION_DOT":4.72e-6,"MEAN_MOTION_DDOT":0},{"OBJECT_NAME":"ONEWEB-0025","OBJECT_ID":"2020-008H","EPOCH":"2025-09-16T05:51:19.624896","MEAN_MOTION":13.10370969,"ECCENTRICITY":0.00018954,"INCLINATION":87.8752,"RA_OF_ASC_NODE":90.8668,"ARG_OF_PERICENTER":69.1503,"MEAN_ANOMALY":290.9827,"EPHEMERIS_TYPE":0,"CLASSIFICATION_TYPE":"U","NORAD_CAT_ID":45138,"ELEMENT_SET_NO":999,"REV_AT_EPOCH":27269,"BSTAR":-0.0012544088,"MEAN_MOTION_DOT":-4.25e-6,"MEAN_MOTION_DDOT":0},{"OBJECT_NAME":"ONEWEB-0026","OBJECT_ID":"2020-008J","EPOCH":"2025-09-16T06:04:33.255552","MEAN_MOTION":13.11417174,"ECCENTRICITY":0.00016481,"INCLINATION":87.8776,"RA_OF_ASC_NODE":75.6364,"ARG_OF_PERICENTER":96.3518,"MEAN_ANOMALY":263.7797,"EPHEMERIS_TYPE":0,"CLASSIFICATION_TYPE":"U","NORAD_CAT_ID":45139,"ELEMENT_SET_NO":999,"REV_AT_EPOCH":27520,"BSTAR":0.0016019872,"MEAN_MOTION_DOT":5.81e-6,"MEAN_MOTION_DDOT":0},{"OBJECT_NAME":"ONEWEB-0028","OBJECT_ID":"2020-008K","EPOCH":"2025-09-16T05:02:16.401120","MEAN_MOTION":13.11417296,"ECCENTRICITY":0.0001926,"INCLINATION":87.8775,"RA_OF_ASC_NODE":75.6651,"ARG_OF_PERICENTER":70.4877,"MEAN_ANOMALY":289.6459,"EPHEMERIS_TYPE":0,"CLASSIFICATION_TYPE":"U","NORAD_CAT_ID":45140,"ELEMENT_SET_NO":999,"REV_AT_EPOCH":27271,"BSTAR":-0.0015700665,"MEAN_MOTION_DOT":-5.44e-6,"MEAN_MOTION_DDOT":0},{"OBJECT_NAME":"ONEWEB-0032","OBJECT_ID":"2020-008L","EPOCH":"2025-09-16T06:14:00.886272","MEAN_MOTION":13.10373492,"ECCENTRICITY":0.00017493,"INCLINATION":87.8735,"RA_OF_ASC_NODE":90.9015,"ARG_OF_PERICENTER":81.7282,"MEAN_ANOMALY":278.4044,"EPHEMERIS_TYPE":0,"CLASSIFICATION_TYPE":"U","NORAD_CAT_ID":45141,"ELEMENT_SET_NO":999,"REV_AT_EPOCH":27242,"BSTAR":-0.0022598179,"MEAN_MOTION_DOT":-7.76e-6,"MEAN_MOTION_DDOT":0},{"OBJECT_NAME":"ONEWEB-0033","OBJECT_ID":"2020-008M","EPOCH":"2025-09-16T05:38:10.926816","MEAN_MOTION":13.1036969,"ECCENTRICITY":0.00015546,"INCLINATION":87.8732,"RA_OF_ASC_NODE":90.9185,"ARG_OF_PERICENTER":92.6279,"MEAN_ANOMALY":267.5026,"EPHEMERIS_TYPE":0,"CLASSIFICATION_TYPE":"U","NORAD_CAT_ID":45142,"ELEMENT_SET_NO":999,"REV_AT_EPOCH":27233,"BSTAR":-1.61698e-5,"MEAN_MOTION_DOT":7.0e-8,"MEAN_MOTION_DDOT":0}]
